[{"OBJECT_NAME":"STARLINK-35782","OBJECT_ID":"2025-303V","EPOCH":"2026-03-09T01:32:42.171936","MEAN_MOTION":15.27563799,"ECCENTRICITY":0.00017939,"INCLINATION":43.003,"RA_OF_ASC_NODE":313.8882,"ARG_OF_PERICENTER":254.3565,"MEAN_ANOMALY":105.7089,"EPHEMERIS_TYPE":0,"CLASSIFICATION_TYPE":"U","NORAD_CAT_ID":67182,"ELEMENT_SET_NO":999,"REV_AT_EPOCH":1264,"BSTAR":0.00088479998,"MEAN_MOTION_DOT":0.00024154,"MEAN_MOTION_DDOT":0},{"OBJECT_NAME":"OBJECT BD","OBJECT_ID":"2025-313BD","EPOCH":"2026-03-09T15:06:44.992224","MEAN_MOTION":15.3000236,"ECCENTRICITY":0.00072867,"INCLINATION":97.397,"RA_OF_ASC_NODE":145.285,"ARG_OF_PERICENTER":333.4514,"MEAN_ANOMALY":26.6352,"EPHEMERIS_TYPE":0,"CLASSIFICATION_TYPE":"U","NORAD_CAT_ID":67299,"ELEMENT_SET_NO":999,"REV_AT_EPOCH":1083,"BSTAR":0.0027633805,"MEAN_MOTION_DOT":0.0008101,"MEAN_MOTION_DDOT":0}]
